STARLINK-36097          
1 67091U 25298S   26009.83334490  .00090499  00000+0  20489-2 0  9995
2 67091  70.0002 171.3349 0003244 275.2076 300.7478 15.42666838  5489
STARLINK-35792          
1 67092U 25298T   26009.83334490  .00098460  00000+0  22273-2 0  9995
2 67092  69.9999 171.3592 0003799 276.9838 276.9855 15.42655497  5438
STARLINK-35784          
1 67093U 25298U   26009.62029893  .00033073  00000+0  75484-3 0  9993
2 67093  69.9995 172.0397 0003497 258.3669 101.7121 15.42732453  4154
STARLINK-36202          
1 67094U 25298V   26009.61615974  .00009392  00000+0  21757-3 0  9995
2 67094  70.0003 172.0250 0003259 271.2905  88.7904 15.42713170  4157
STARLINK-36227          
1 67095U 25298W   26009.83334490  .00097240  00000+0  22027-2 0  9990
2 67095  70.0005 171.2845 0002536 285.2412 334.6612 15.42623319  5432
STARLINK-36228          
1 67096U 25298X   26009.58500778  .00119216  00000+0  19091-2 0  9992
2 67096  70.0002 171.9118 0003163 266.3100  93.7725 15.52556396  4158
STARLINK-36222          
1 67097U 25298Y   26008.87626330  .00054648  00000+0  88585-3 0  9999
2 67097  70.0004 173.8528 0002876 292.8548  67.2335 15.52490709  4043
STARLINK-36205          
1 67098U 25298Z   26009.62426318  .00042567  00000+0  96917-3 0  9993
2 67098  69.9997 172.0546 0003668 275.4129  84.6634 15.42737948  4150
STARLINK-36193          
1 67099U 25298AA  26009.59977129  .00047563  00000+0  10821-2 0  9991
2 67099  70.0000 172.3773 0004884 304.2573  55.8146 15.42726399  4144
STARLINK-36215          
1 67100U 25298AB  26009.58361416  .00075168  00000+0  12108-2 0  9991
2 67100  70.0000 171.9059 0003710 277.7403  82.3363 15.52569029  4155
STARLINK-36200          
1 67101U 25298AC  26009.83334490  .00081442  00000+0  18466-2 0  9997
2 67101  70.0000 171.3872 0003350 273.9106 257.0469 15.42662714  5491
STARLINK-36255          
1 67102U 25299A   26009.10141093  .00047470  00000+0  11358-2 0  9990
2 67102  43.0002 152.3892 0001797 274.6817  85.3835 15.40721001  3923
STARLINK-36256          
1 67103U 25299B   26009.00003471  .00013342  00000+0  32626-3 0  9990
2 67103  43.0004 152.9133 0001654 272.2472 269.7513 15.40683710  5188
STARLINK-36258          
1 67104U 25299C   26008.42388675  .00128971  00000+0  21603-2 0  9995
2 67104  42.9999 155.8986 0004433 291.0097  69.0289 15.50674912  3823
STARLINK-36261          
1 67105U 25299D   26009.09916195  .00037127  00000+0  89056-3 0  9993
2 67105  43.0039 152.3696 0003895 266.3272  93.7139 15.40734186  3920
STARLINK-36259          
1 67106U 25299E   26009.83334490  .00096406  00000+0  22911-2 0  9999
2 67106  42.9997 147.9027 0001746 282.1114 294.4185 15.40633483  5329
STARLINK-36196          
1 67107U 25299F   26007.71462869  .00094191  00000+0  15878-2 0  9990
2 67107  43.0000 160.0353 0001918 268.6018  91.4623 15.50654455  3714
STARLINK-36208          
1 67108U 25299G   26009.64640310  .00075876  00000+0  12836-2 0  9994
2 67108  43.0001 148.7306 0000102 267.1824  92.9025 15.50645964  4011
STARLINK-35764          
1 67109U 25299H   26009.83334490  .00105944  00000+0  25157-2 0  9995
2 67109  43.0000 148.0234 0001830 274.4108 252.4215 15.40611692  5216
STARLINK-35781          
1 67110U 25299J   26007.39119240  .00017425  00000+0  30969-3 0  9994
2 67110  42.9989 161.9098 0002324 326.7971  33.2743 15.49882893  3662
STARLINK-35875          
1 67111U 25299K   26008.42182772  .00095912  00000+0  16179-2 0  9993
2 67111  43.0000 155.8834 0001634 269.8071  90.2602 15.50627989  3820
STARLINK-35906          
1 67112U 25299L   26008.48555732  .00088549  00000+0  14974-2 0  9999
2 67112  43.0004 155.5002 0001838 270.8240  89.2409 15.50592700  3831
STARLINK-35789          
1 67113U 25299M   26009.83334490  .00097275  00000+0  23103-2 0  9996
2 67113  43.0001 147.7506 0002068 271.2500   7.4150 15.40648221  5219
STARLINK-36180          
1 67114U 25299N   26008.67811591  .00114176  00000+0  19216-2 0  9990
2 67114  43.0007 154.3642 0001670 272.9280  87.1389 15.50610458  3862
STARLINK-35892          
1 67115U 25299P   26009.83334490  .00126191  00000+0  29843-2 0  9995
2 67115  43.0000 147.9623 0001441 283.9879 267.6553 15.40640399  5210
STARLINK-35738          
1 67116U 25299Q   26009.83334490  .00095150  00000+0  22613-2 0  9994
2 67116  42.9997 147.8711 0001494 282.2429 306.7274 15.40638774  5211
STARLINK-35674          
1 67117U 25299R   26009.00003471  .00010319  00000+0  25406-3 0  9994
2 67117  43.0005 152.8820 0001830 273.8616 280.5767 15.40687897  4988
STARLINK-35701          
1 67118U 25299S   26008.67674355  .00111233  00000+0  18731-2 0  9991
2 67118  43.0004 154.3532 0000965 238.2751 121.8015 15.50607476  3863
STARLINK-36179          
1 67119U 25299T   26009.00003471  .00009772  00000+0  24098-3 0  9993
2 67119  43.0004 152.8507 0001572 268.9513 297.9275 15.40688373  5195
STARLINK-36217          
1 67120U 25299U   26008.67640042  .00101697  00000+0  17151-2 0  9998
2 67120  42.9998 154.3494 0001512 264.5920  95.4768 15.50607380  3867
STARLINK-36124          
1 67121U 25299V   26009.83334490  .00099073  00000+0  23532-2 0  9999
2 67121  42.9999 147.7180 0001859 283.4537   7.7184 15.40636225  5325
STARLINK-36188          
1 67122U 25299W   26009.83334490  .00100745  00000+0  23922-2 0  9992
2 67122  43.0000 147.7794 0002118 298.8143 327.4627 15.40636412  5326
STARLINK-36151          
1 67123U 25299X   26009.00003472  .00009403  00000+0  23220-3 0  9996
2 67123  43.0002 152.7913 0001278 268.8259 322.9401 15.40685251  5199
STARLINK-36195          
1 67124U 25299Y   26009.83334490  .00096172  00000+0  22854-2 0  9995
2 67124  42.9998 147.8406 0001194 279.0407 322.3679 15.40636249  5329
STARLINK-36219          
1 67125U 25299Z   26008.67440142  .00119407  00000+0  20054-2 0  9996
2 67125  43.0013 154.3327 0004222 143.9749 216.1396 15.50640851  3866
STARLINK-36223          
1 67126U 25299AA  26008.67392685  .00104688  00000+0  17526-2 0  9990
2 67126  42.9996 154.3292 0002014 272.3410  87.7219 15.50800128  3866
STARLINK-36164          
1 67127U 25299AB  26008.67365787  .00101915  00000+0  17191-2 0  9992
2 67127  43.0010 154.3276 0001707 270.6558  89.4106 15.50601043  3869
STARLINK-35685          
1 67128U 25299AC  26009.83334490  .00097287  00000+0  23119-2 0  9992
2 67128  42.9999 147.9291 0001964 284.9959 279.1149 15.40630925  5325
STARLINK-36214          
1 67129U 25299AD  26008.67331387  .00098845  00000+0  16687-2 0  9999
2 67129  43.0008 154.3242 0001765 264.6094  95.4565 15.50591951  3865
STARLINK-36194          
1 67130U 25299AE  26007.70641266  .00106350  00000+0  17929-2 0  9995
2 67130  42.9999 159.9704 0003473 262.6217  97.4249 15.50593986  3716
ZIYUAN 3-04 (ZY 3-04)   
1 67131U 25300A   26009.18248613  .00001730  00000+0  80130-4 0  9994
2 67131  97.4889  88.1516 0003945 118.6144 241.5489 15.21458354  3666
CZ-4B R/B               
1 67132U 25300B   26009.51500471  .00133824  75227-5  54254-3 0  9991
2 67132  97.5508  90.4502 0154907 286.9163  71.5165 15.70175256  3823
KUIPER-00144            
1 67133U 25301A   26008.97429420  .00030713  00000+0  86859-3 0  9996
2 67133  51.8704 353.7783 0006532 160.5450 199.5786 15.36039466  4552
KUIPER-00164            
1 67134U 25301B   26009.22419635  .00036348  00000+0  10074-2 0  9998
2 67134  51.8728 352.4571 0002846 142.3860 217.7325 15.36600987  4775
KUIPER-00175            
1 67135U 25301C   26009.21634925  .00020132  00000+0  55372-3 0  9994
2 67135  51.8749 352.4026 0002860  94.1764 265.9549 15.37170133  4664
KUIPER-00179            
1 67136U 25301D   26009.22198473  .00032257  00000+0  89168-3 0  9990
2 67136  51.8742 352.4413 0003295 121.3048 238.8262 15.36740117  4776
KUIPER-00181            
1 67137U 25301E   26009.64186569  .00028477  00000+0  84000-3 0  9999
2 67137  51.8650 350.7392 0010425 189.8231 170.2552 15.34726511  4814
KUIPER-00183            
1 67138U 25301F   26009.25565918  .00032380  00000+0  95290-3 0  9997
2 67138  51.8629 352.6464 0011186 190.1643 169.9118 15.34724992  4767
KUIPER-00184            
1 67139U 25301G   26009.64075514  .00029282  00000+0  85666-3 0  9992
2 67139  51.8637 350.7306 0009346 189.8804 170.2000 15.34981385  4935
KUIPER-00186            
1 67140U 25301H   26009.24034830  .00036456  00000+0  10365-2 0  9990
2 67140  51.8688 352.5577 0008029 173.2000 186.9096 15.35776674  4590
KUIPER-00187            
1 67141U 25301J   26009.22914678  .00073426  00000+0  20781-2 0  9997
2 67141  51.8715 352.4882 0005093 161.2249 198.8926 15.35620690  4590
KUIPER-00188            
1 67142U 25301K   26009.63239871  .00017388  00000+0  50389-3 0  9991
2 67142  51.8702 350.6864 0007611 180.4851 179.6129 15.35620496  4650
KUIPER-00191            
1 67143U 25301L   26009.17385413  .00024918  00000+0  71320-3 0  9990
2 67143  51.8680 352.8624 0006700 172.6270 187.4816 15.35778038  4612
KUIPER-00196            
1 67144U 25301M   26009.22594314  .00034465  00000+0  95823-3 0  9991
2 67144  51.8731 352.4677 0003893 135.0647 225.0655 15.36525895  4594
KUIPER-00204            
1 67145U 25301N   26009.83334490 -.01422773  00000+0 -53064-1 0  9991
2 67145  51.8781 349.6317 0004670 112.7257 303.6904 15.30110680  4790
KUIPER-00210            
1 67146U 25301P   26009.64492830  .00020230  00000+0  59956-3 0  9991
2 67146  51.8612 350.7524 0010497 196.2875 163.7775 15.34782320  4829
KUIPER-00221            
1 67147U 25301Q   26009.23033484  .00032922  00000+0  92310-3 0  9995
2 67147  51.8721 352.4962 0005006 155.0894 205.0335 15.36280174  4598
KUIPER-00232            
1 67148U 25301R   26009.21543558  .00034008  00000+0  92716-3 0  9999
2 67148  51.8749 352.3985 0002279  82.4093 277.7152 15.37145736  4594
KUIPER-00241            
1 67149U 25301S   26009.22239425  .00033693  00000+0  93039-3 0  9994
2 67149  51.8746 352.4425 0002825 128.5981 231.5258 15.36752144  4925
